NORAD_CAT_ID,OBJECT_NAME,OBJECT_TYPE,EPOCH,MEAN_MOTION,ECCENTRICITY,INCLINATION,RA_OF_ASC_NODE,ARG_OF_PERICENTER,MEAN_ANOMALY,BSTAR,MEAN_MOTION_DOT,MEAN_MOTION_DDOT,TLE_LINE0,TLE_LINE1,TLE_LINE2,SEMIMAJOR_AXIS,PERIOD,APOGEE,PERIGEE,DECAYED
52466.0,STARLINK-3840,PAYLOAD,2023-06-23 07:43:15,15.08840891,9.42e-05,53.2162,185.2199,71.3426,288.7669,2.9124e-05,1.76e-06,0.0,0 STARLINK-3840,1 52466U 22049R   23174.32170913  .00000176  00000-0  29124-4 0  9999,2 52466  53.2162 185.2199 0000942  71.3426 288.7669 15.08840891 62892,6917.878,95.437,540.394,539.091,0.0
52466.0,STARLINK-3840,PAYLOAD,2023-06-24 04:23:16,15.08832473,9.44e-05,53.2158,181.3539,70.0027,290.1067,3.4637e-05,2.63e-06,0.0,0 STARLINK-3840,1 52466U 22049R   23175.18283542  .00000263  00000-0  34637-4 0  9999,2 52466  53.2158 181.3539 0000944  70.0027 290.1067 15.08832473 63029,6917.903,95.438,540.421,539.115,0.0
52466.0,STARLINK-3840,PAYLOAD,2023-06-25 07:24:50,15.08840934,9.39e-05,53.2157,176.2987,71.0678,289.0416,4.4007e-05,4.13e-06,0.0,0 STARLINK-3840,1 52466U 22049R   23176.30891296  .00000413  00000-0  44007-4 0  9994,2 52466  53.2157 176.2987 0000939  71.0678 289.0416 15.08840934 63199,6917.878,95.437,540.392,539.093,0.0
52466.0,STARLINK-3840,PAYLOAD,2023-06-26 07:15:37,15.08834566,9.58e-05,53.2159,171.8393,75.5814,284.5284,5.6393e-05,6.1e-06,0.0,0 STARLINK-3840,1 52466U 22049R   23177.30251838  .00000610  00000-0  56393-4 0  9997,2 52466  53.2159 171.8393 0000958  75.5814 284.5284 15.08834566 63349,6917.897,95.438,540.425,539.099,0.0
52466.0,STARLINK-3840,PAYLOAD,2023-06-27 08:41:47,15.08844552,0.0001004,53.2162,167.0815,77.4089,282.7015,6.6273e-05,7.67e-06,0.0,0 STARLINK-3840,1 52466U 22049R   23178.36235238  .00000767  00000-0  66273-4 0  9991,2 52466  53.2162 167.0815 0001004  77.4089 282.7015 15.08844552 63503,6917.866,95.437,540.426,539.037,0.0
52466.0,STARLINK-3840,PAYLOAD,2023-06-28 05:21:48,15.08837642,0.0001023,53.2164,163.2158,78.3733,281.7374,4.9105e-05,4.94e-06,0.0,0 STARLINK-3840,1 52466U 22049R   23179.22347668  .00000494  00000-0  49105-4 0  9990,2 52466  53.2164 163.2158 0001023  78.3733 281.7374 15.08837642 63633,6917.888,95.438,540.46,539.045,0.0
52466.0,STARLINK-3840,PAYLOAD,2023-06-29 08:23:21,15.08839414,0.0001082,53.2173,158.1605,83.7061,276.4054,-5.4132e-06,-3.74e-06,0.0,0 STARLINK-3840,1 52466U 22049R   23180.34955699 -.00000374  00000-0 -54132-5 0  9990,2 52466  53.2173 158.1605 0001082  83.7061 276.4054 15.08839414 63806,6917.882,95.438,540.496,538.999,0.0
52466.0,STARLINK-3840,PAYLOAD,2023-07-01 01:43:23,15.0883283,0.0001024,53.2169,150.4291,86.255,273.8559,-6.013e-06,-3.83e-06,0.0,0 STARLINK-3840,1 52466U 22049R   23182.07180280 -.00000383  00000-0 -60130-5 0  9993,2 52466  53.2169 150.4291 0001024  86.2550 273.8559 15.08832830 64069,6917.902,95.438,540.476,539.059,0.0
52466.0,STARLINK-3840,PAYLOAD,2023-07-01 14:26:28,15.08839241,0.0001072,53.2172,148.0508,88.1787,271.9328,2.7521e-05,1.5e-06,0.0,0 STARLINK-3840,1 52466U 22049R   23182.60171918  .00000150  00000-0  27521-4 0  9996,2 52466  53.2172 148.0508 0001072  88.1787 271.9328 15.08839241 64148,6917.883,95.438,540.489,539.006,0.0
52466.0,STARLINK-3840,PAYLOAD,2023-07-03 01:24:58,15.08835431,0.0001031,53.2174,141.5089,95.8577,264.2533,2.9694e-05,1.85e-06,0.0,0 STARLINK-3840,1 52466U 22049R   23184.05900514  .00000185  00000-0  29694-4 0  9990,2 52466  53.2174 141.5089 0001031  95.8577 264.2533 15.08835431 64363,6917.894,95.438,540.473,539.046,0.0
52466.0,STARLINK-3840,PAYLOAD,2023-07-04 02:51:07,15.08841064,0.0001007,53.2168,136.7505,102.2669,257.8436,5.7927e-05,6.34e-06,0.0,0 STARLINK-3840,1 52466U 22049R   23185.11884218  .00000634  00000-0  57927-4 0  9999,2 52466  53.2168 136.7505 0001007 102.2669 257.8436 15.08841064 64520,6917.877,95.437,540.439,539.046,0.0
52466.0,STARLINK-3840,PAYLOAD,2023-07-05 05:52:41,15.088395,0.0001095,53.2171,131.6955,100.2583,259.8533,6.488e-05,7.45e-06,0.0,0 STARLINK-3840,1 52466U 22049R   23186.24492319  .00000745  00000-0  64880-4 0  9990,2 52466  53.2171 131.6955 0001095 100.2583 259.8533 15.08839500 64697,6917.882,95.438,540.504,538.989,0.0
52466.0,STARLINK-3840,PAYLOAD,2023-07-06 13:40:24,15.0884099,0.0001139,53.2172,125.7485,98.3099,261.8022,1.9901e-05,2.9e-07,0.0,0 STARLINK-3840,1 52466U 22049R   23187.56972379  .00000029  00000-0  19901-4 0  9994,2 52466  53.2172 125.7485 0001139  98.3099 261.8022 15.08840990 64891,6917.877,95.437,540.53,538.954,0.0
52466.0,STARLINK-3840,PAYLOAD,2023-07-08 02:14:16,15.08841426,0.000117,53.2178,118.9082,96.8464,263.2661,2.0392e-05,3.7e-07,0.0,0 STARLINK-3840,1 52466U 22049R   23189.09324423  .00000037  00000-0  20392-4 0  9990,2 52466  53.2178 118.9082 0001170  96.8464 263.2661 15.08841426 65125,6917.876,95.437,540.55,538.932,0.0
52466.0,STARLINK-3840,PAYLOAD,2023-07-08 19:43:31,15.08834333,0.0001298,53.2178,115.6386,91.4464,268.6677,-2.5144e-05,-6.88e-06,0.0,0 STARLINK-3840,1 52466U 22049R   23189.82189160 -.00000688  00000-0 -25144-4 0  9992,2 52466  53.2178 115.6386 0001298  91.4464 268.6677 15.08834333 65235,6917.898,95.438,540.661,538.865,0.0
52466.0,STARLINK-3840,PAYLOAD,2023-07-10 03:31:13,15.08838073,0.0001228,53.2182,109.692,96.1055,264.0077,9.9461e-05,1.295e-05,0.0,0 STARLINK-3840,1 52466U 22049R   23191.14668785  .00001295  00000-0  99461-4 0  9991,2 52466  53.2182 109.6920 0001228  96.1055 264.0077 15.08838073 65439,6917.886,95.438,540.601,538.902,0.0
52466.0,STARLINK-3840,PAYLOAD,2023-07-10 11:28:10,15.08816693,0.0001456,53.2179,108.2046,105.9187,254.1965,0.0002589,3.832e-05,0.0,0 STARLINK-3840,1 52466U 22049R   23191.47789834  .00003832  00000-0  25890-3 0  9999,2 52466  53.2179 108.2046 0001456 105.9187 254.1965 15.08816693 65482,6917.952,95.439,540.824,538.809,0.0
52466.0,STARLINK-3840,PAYLOAD,2023-07-10 21:00:28,15.08832368,0.0001164,53.2181,106.421,95.7019,264.4106,7.0025e-05,8.27e-06,0.0,0 STARLINK-3840,1 52466U 22049R   23191.87533418  .00000827  00000-0  70025-4 0  9990,2 52466  53.2181 106.4210 0001164  95.7019 264.4106 15.08832368 65549,6917.904,95.438,540.574,538.963,0.0
52466.0,STARLINK-3840,PAYLOAD,2023-07-11 03:22:01,15.08838886,0.0001157,53.218,105.2316,96.4268,263.6856,7.7937e-05,9.53e-06,0.0,0 STARLINK-3840,1 52466U 22049R   23192.14029056  .00000953  00000-0  77937-4 0  9998,2 52466  53.2180 105.2316 0001157  96.4268 263.6856 15.08838886 65586,6917.884,95.438,540.549,538.948,0.0
52466.0,STARLINK-3840,PAYLOAD,2023-07-12 11:09:43,15.08843124,0.0001058,53.2177,99.2848,104.7025,255.4085,-8.4403e-05,-1.631e-05,0.0,0 STARLINK-3840,1 52466U 22049R   23193.46509247 -.00001631  00000-0 -84403-4 0  9991,2 52466  53.2177  99.2848 0001058 104.7025 255.4085 15.08843124 65784,6917.871,95.437,540.468,539.004,0.0
52466.0,STARLINK-3840,PAYLOAD,2023-07-13 23:43:35,15.08846843,0.0001106,53.2181,92.4442,98.5449,261.5668,2.239e-05,6.9e-07,0.0,0 STARLINK-3840,1 52466U 22049R   23194.98860835  .00000069  00000-0  22390-4 0  9991,2 52466  53.2181  92.4442 0001106  98.5449 261.5668 15.08846843 66011,6917.859,95.437,540.49,538.959,0.0
52466.0,STARLINK-3840,PAYLOAD,2023-07-14 17:12:50,15.08840739,0.0001133,53.218,89.1731,98.1162,261.9959,3.3947e-05,2.53e-06,0.0,0 STARLINK-3840,1 52466U 22049R   23195.71725124  .00000253  00000-0  33947-4 0  9999,2 52466  53.2180  89.1731 0001133  98.1162 261.9959 15.08840739 66129,6917.878,95.438,540.527,538.959,0.0
52466.0,STARLINK-3840,PAYLOAD,2023-07-15 17:03:38,15.08835948,0.000112,53.2176,84.7135,95.4796,264.6324,-4.4943e-05,-1.003e-05,0.0,0 STARLINK-3840,1 52466U 22049R   23196.71085823 -.00001003  00000-0 -44943-4 0  9999,2 52466  53.2176  84.7135 0001120  95.4796 264.6324 15.08835948 66270,6917.893,95.438,540.533,538.983,0.0
52466.0,STARLINK-3840,PAYLOAD,2023-07-16 18:29:48,15.08836538,0.0001062,53.2181,79.9555,92.872,267.2393,2.6162e-05,1.29e-06,0.0,0 STARLINK-3840,1 52466U 22049R   23197.77069705  .00000129  00000-0  26162-4 0  9996,2 52466  53.2181  79.9555 0001062  92.8720 267.2393 15.08836538 66430,6917.891,95.438,540.491,539.021,0.0
52466.0,STARLINK-3840,PAYLOAD,2023-07-17 08:48:16,15.08853871,9.74e-05,53.218,77.2801,99.525,260.5852,-0.00020903,-3.614e-05,0.0,0 STARLINK-3840,1 52466U 22049R   23198.36685311 -.00003614  00000-0 -20903-3 0  9999,2 52466  53.2180  77.2801 0000974  99.5250 260.5852 15.08853871 66522,6917.838,95.437,540.377,539.029,0.0
52466.0,STARLINK-3840,PAYLOAD,2023-07-18 02:17:31,15.08833184,9.86e-05,53.2185,74.0085,91.0403,269.0702,2.7384e-05,1.48e-06,0.0,0 STARLINK-3840,1 52466U 22049R   23199.09550141  .00000148  00000-0  27384-4 0  9990,2 52466  53.2185  74.0085 0000986  91.0403 269.0702 15.08833184 66631,6917.901,95.438,540.448,539.084,0.0
52466.0,STARLINK-3840,PAYLOAD,2023-07-19 10:05:13,15.08845472,8.14e-05,53.2183,68.0619,97.426,262.6824,-7.8535e-05,-1.538e-05,0.0,0 STARLINK-3840,1 52466U 22049R   23200.42029920 -.00001538  00000-0 -78535-4 0  9996,2 52466  53.2183  68.0619 0000814  97.4260 262.6824 15.08845472 66835,6917.864,95.437,540.292,539.166,0.0
52466.0,STARLINK-3840,PAYLOAD,2023-07-20 17:52:56,15.08835719,9.91e-05,53.2181,62.1151,76.8629,283.2474,6.083e-05,6.8e-06,0.0,0 STARLINK-3840,1 52466U 22049R   23201.74510284  .00000680  00000-0  60830-4 0  9994,2 52466  53.2181  62.1151 0000991  76.8629 283.2474 15.08835719 67031,6917.893,95.438,540.444,539.073,0.0
52466.0,STARLINK-3840,PAYLOAD,2023-07-21 09:46:47,15.088454,8.23e-05,53.2181,59.1408,107.2671,252.8411,2.3122e-05,8e-07,0.0,0 STARLINK-3840,1 52466U 22049R   23202.40749727  .00000080  00000-0  23122-4 0  9991,2 52466  53.2181  59.1408 0000823 107.2671 252.8411 15.08845400 67134,6917.864,95.437,540.298,539.16,0.0
52466.0,STARLINK-3840,PAYLOAD,2023-07-24 12:29:56,15.08822291,7.17e-05,53.2177,45.1664,97.9545,262.1528,0.00023327,3.425e-05,0.0,0 STARLINK-3840,1 52466U 22049R   23205.52078926  .00003425  00000-0  23327-3 0  9995,2 52466  53.2177  45.1664 0000717  97.9545 262.1528 15.08822291 67445,6917.935,95.439,540.296,539.304,0.0
